STARLINK-1807           
1 46706U 20073AN  26068.64914205  .00041618  00000+0  17212-2 0  9992
2 46706  53.0589 228.5688 0005019 167.7565 192.3554 15.23578372297310
FLOCK 4G-18             
1 62680U 25009BZ  26068.19114186  .00011766  00000+0  44319-3 0  9995
2 62680  97.4054 150.5008 0004100 335.7331  24.3715 15.27241676121267
